NORAD_CAT_ID,OBJECT_NAME,OBJECT_TYPE,EPOCH,MEAN_MOTION,ECCENTRICITY,INCLINATION,RA_OF_ASC_NODE,ARG_OF_PERICENTER,MEAN_ANOMALY,BSTAR,MEAN_MOTION_DOT,MEAN_MOTION_DDOT,TLE_LINE0,TLE_LINE1,TLE_LINE2,SEMIMAJOR_AXIS,PERIOD,APOGEE,PERIGEE,DECAYED
52127.0,STARLINK-3715,PAYLOAD,2022-12-28 00:08:52,15.08848879,0.0003003,53.2177,271.05400000000003,30.2007,329.9158,0.0001621,2.293e-05,0.0,0 STARLINK-3715,1 52127U 22029AR  22362.00615838  .00002293  00000-0  16210-3 0  9997,2 52127  53.2177 271.0540 0003003  30.2007 329.9158 15.08848879 44644,6917.853,95.437,541.7959999999998,537.641,0.0
52127.0,STARLINK-3715,PAYLOAD,2022-12-29 03:10:25,15.0884045,0.0002961,53.2173,265.999,30.9631,329.1536,-0.00010167,-1.907e-05,0.0,0 STARLINK-3715,1 52127U 22029AR  22363.13223862 -.00001907  00000-0 -10167-3 0  9992,2 52127  53.2173 265.9990 0002961  30.9631 329.1536 15.08840450 44811,6917.879,95.438,541.7919999999998,537.696,0.0
52127.0,STARLINK-3715,PAYLOAD,2022-12-29 11:07:21,15.08842687,0.0002975,53.2181,264.5124,31.4061,328.7108,-5.6742e-05,-1.192e-05,0.0,0 STARLINK-3715,1 52127U 22029AR  22363.46344233 -.00001192  00000-0 -56742-4 0  9990,2 52127  53.2181 264.5124 0002975  31.4061 328.7108 15.08842687 44861,6917.871999999999,95.437,541.795,537.679,0.0
52127.0,STARLINK-3715,PAYLOAD,2022-12-30 10:58:08,15.08837352,0.0002853,53.2178,260.0513,31.0115,329.1045,-4.7379e-05,-1.043e-05,0.0,0 STARLINK-3715,1 52127U 22029AR  22364.45704518 -.00001043  00000-0 -47379-4 0  9997,2 52127  53.2178 260.0513 0002853  31.0115 329.1045 15.08837352 45017,6917.888000000001,95.438,541.727,537.78,0.0
52127.0,STARLINK-3715,PAYLOAD,2022-12-30 23:41:13,15.08844024,0.0002801,53.2175,257.6728,27.945,332.1692,0.00017222,2.454e-05,0.0,0 STARLINK-3715,1 52127U 22029AR  22364.98695655  .00002454  00000-0  17222-3 0  9994,2 52127  53.2175 257.6728 0002801  27.9450 332.1692 15.08844024 45097,6917.868,95.437,541.6709999999998,537.795,0.0
52127.0,STARLINK-3715,PAYLOAD,2023-01-01 02:42:47,15.08829899,0.0002904999999999,53.2179,252.6184,24.2585,335.8544,-3.5533e-06,-3.45e-06,0.0,0 STARLINK-3715,1 52127U 22029AR  23001.11304801 -.00000345  00000-0 -35533-5 0  9994,2 52127  53.2179 252.6184 0002905  24.2585 335.8544 15.08829899 45264,6917.911,95.438,541.786,537.7669999999998,0.0
52127.0,STARLINK-3715,PAYLOAD,2023-01-01 17:01:17,15.0881842,0.0002735,53.2169,249.9416,27.0619,333.0516,-0.00014396,-2.578e-05,0.0,0 STARLINK-3715,1 52127U 22029AR  23001.70922732 -.00002578  00000-0 -14396-3 0  9990,2 52127  53.2169 249.9416 0002735  27.0619 333.0516 15.08818420 45357,6917.946,95.439,541.703,537.919,0.0
52127.0,STARLINK-3715,PAYLOAD,2023-01-02 08:55:08,15.08824927,0.0002883,53.2182,246.9692,25.4346,334.6787,-0.00012054,-2.206e-05,0.0,0 STARLINK-3715,1 52127U 22029AR  23002.37163072 -.00002206  00000-0 -12054-3 0  9995,2 52127  53.2182 246.9692 0002883  25.4346 334.6787 15.08824927 45455,6917.926,95.439,541.786,537.797,0.0
52127.0,STARLINK-3715,PAYLOAD,2023-01-02 16:52:04,15.08816121,0.0002878999999999,53.218,245.4821,22.6114,337.5005,0.0001038,1.363e-05,0.0,0 STARLINK-3715,1 52127U 22029AR  23002.70283290  .00001363  00000-0  10380-3 0  9998,2 52127  53.2180 245.4821 0002879  22.6114 337.5005 15.08816121 45506,6917.953,95.439,541.81,537.827,0.0
52127.0,STARLINK-3715,PAYLOAD,2023-01-03 08:45:56,15.088314000000002,0.0002927,53.2174,242.5087,24.4999,335.6132,0.00030939,4.638e-05,0.0,0 STARLINK-3715,1 52127U 22029AR  23003.36523538  .00004638  00000-0  30939-3 0  9993,2 52127  53.2174 242.5087 0002927  24.4999 335.6132 15.08831400 45604,6917.906999999997,95.438,541.797,537.747,0.0
52127.0,STARLINK-3715,PAYLOAD,2023-01-04 08:36:43,15.08852132,0.000295,53.2163,238.0485,24.2797,335.8333,0.0005359,8.254e-05,0.0,0 STARLINK-3715,1 52127U 22029AR  23004.35883520  .00008254  00000-0  53590-3 0  9999,2 52127  53.2163 238.0485 0002950  24.2797 335.8333 15.08852132 45750,6917.843000000003,95.437,541.749,537.668,0.0
52127.0,STARLINK-3715,PAYLOAD,2023-01-04 21:19:48,15.08853992,0.0002978,53.2155,235.6692,25.5397,334.5742,0.00044449,6.796e-05,0.0,0 STARLINK-3715,1 52127U 22029AR  23004.88875281  .00006796  00000-0  44449-3 0  9994,2 52127  53.2155 235.6692 0002978  25.5397 334.5742 15.08853992 45838,6917.8380000000025,95.437,541.763,537.6419999999998,0.0
52127.0,STARLINK-3715,PAYLOAD,2023-01-05 08:27:29,15.08870904,0.0003081,53.2158,233.5881,28.7835,331.3326,0.00072301,0.00011247,0.0,0 STARLINK-3715,1 52127U 22029AR  23005.35242349  .00011247  00000-0  72301-3 0  9995,2 52127  53.2158 233.5881 0003081  28.7835 331.3326 15.08870904 45909,6917.786,95.436,541.7819999999998,537.52,0.0
52127.0,STARLINK-3715,PAYLOAD,2023-01-06 08:18:16,15.0883919,0.0003366,53.2163,229.1278,33.9347,326.186,-2.9638000000000007e-05,-7.61e-06,0.0,0 STARLINK-3715,1 52127U 22029AR  23006.34602814 -.00000761  00000-0 -29638-4 0  9999,2 52127  53.2163 229.1278 0003366  33.9347 326.1860 15.08839190 46052,6917.883000000002,95.438,542.076,537.419,0.0
52127.0,STARLINK-3715,PAYLOAD,2023-01-07 00:12:07,15.08844879,0.0003187,53.2163,226.1541,29.9746,330.1428,-3.3558e-05,-8.23e-06,0.0,0 STARLINK-3715,1 52127U 22029AR  23007.00842161 -.00000823  00000-0 -33558-4 0  9999,2 52127  53.2163 226.1541 0003187  29.9746 330.1428 15.08844879 46157,6917.865,95.437,541.935,537.526,0.0
52127.0,STARLINK-3715,PAYLOAD,2023-01-07 17:41:22,15.08842989,0.0003008,53.2164,222.8833,24.0714,336.0418,0.00014568,2.031e-05,0.0,0 STARLINK-3715,1 52127U 22029AR  23007.73706280  .00002031  00000-0  14568-3 0  9990,2 52127  53.2164 222.8833 0003008  24.0714 336.0418 15.08842989 46264,6917.871,95.437,541.817,537.655,0.0
52127.0,STARLINK-3715,PAYLOAD,2023-01-08 00:02:55,15.08838287,0.0002984,53.2157,221.6928,30.162,329.9544,0.00014321,1.991e-05,0.0,0 STARLINK-3715,1 52127U 22029AR  23008.00202606  .00001991  00000-0  14321-3 0  9995,2 52127  53.2157 221.6928 0002984  30.1620 329.9544 15.08838287 46306,6917.886,95.438,541.815,537.686,0.0
52127.0,STARLINK-3715,PAYLOAD,2023-01-08 14:21:23,15.08843642,0.0002807,53.2158,219.0157,32.9208,327.1958,0.00022403,3.279e-05,0.0,0 STARLINK-3715,1 52127U 22029AR  23008.59818424  .00003279  00000-0  22403-3 0  9991,2 52127  53.2158 219.0157 0002807  32.9208 327.1958 15.08843642 46397,6917.8690000000015,95.437,541.6759999999998,537.7919999999998,0.0
52127.0,STARLINK-3715,PAYLOAD,2023-01-08 22:18:19,15.08834633,0.0003022,53.2167,217.5303,28.3921,331.7235,2.0191e-05,3.3e-07,0.0,0 STARLINK-3715,1 52127U 22029AR  23008.92938936  .00000033  00000-0  20191-4 0  9997,2 52127  53.2167 217.5303 0003022  28.3921 331.7235 15.08834633 46449,6917.897,95.438,541.852,537.6709999999998,0.0
52127.0,STARLINK-3715,PAYLOAD,2023-01-08 23:53:42,15.08834093,0.0003073,53.2166,217.2329,28.1133,332.0024,2.3979e-05,9.3e-07,0.0,0 STARLINK-3715,1 52127U 22029AR  23008.99562970  .00000093  00000-0  23979-4 0  9998,2 52127  53.2166 217.2329 0003073  28.1133 332.0024 15.08834093 46453,6917.898,95.438,541.889,537.638,0.0
52127.0,STARLINK-3715,PAYLOAD,2023-01-09 22:09:06,15.08840025,0.0003142,53.2161,213.0701,31.1332,328.9846,0.00012501,1.702e-05,0.0,0 STARLINK-3715,1 52127U 22029AR  23009.92298907  .00001702  00000-0  12501-3 0  9994,2 52127  53.2161 213.0701 0003142  31.1332 328.9846 15.08840025 46591,6917.88,95.438,541.919,537.572,0.0
52127.0,STARLINK-3715,PAYLOAD,2023-01-10 09:16:50,15.08786059,0.0002496,53.2166,210.9891,38.8653,321.2518,0.00085425,0.00013314,0.0,0 STARLINK-3715,1 52127U 22029AR  23010.38669373  .00013314  00000-0  85425-3 0  9992,2 52127  53.2166 210.9891 0002496  38.8653 321.2518 15.08786059 46669,6918.045,95.441,541.637,538.184,0.0
52127.0,STARLINK-3715,PAYLOAD,2023-01-10 15:38:21,15.08826545,0.0003153,53.2164,209.7994,33.57,326.5491,8.0084e-05,9.86e-06,0.0,0 STARLINK-3715,1 52127U 22029AR  23010.65164026  .00000986  00000-0  80084-4 0  9995,2 52127  53.2164 209.7994 0003153  33.5700 326.5491 15.08826545 46701,6917.922,95.438,541.9680000000002,537.605,0.0
52127.0,STARLINK-3715,PAYLOAD,2023-01-11 07:32:12,15.08837147,0.0003203,53.2164,206.8258,34.5124,325.6076,0.00011948,1.613e-05,0.0,0 STARLINK-3715,1 52127U 22029AR  23011.31403727  .00001613  00000-0  11948-3 0  9993,2 52127  53.2164 206.8258 0003203  34.5124 325.6076 15.08837147 46809,6917.889,95.438,541.97,537.538,0.0
52127.0,STARLINK-3715,PAYLOAD,2023-01-11 15:29:08,15.0884176,0.0003275,53.2163,205.33900000000003,34.9208,325.1998,9.288e-05,1.19e-05,0.0,0 STARLINK-3715,1 52127U 22029AR  23011.64523556  .00001190  00000-0  92880-4 0  9997,2 52127  53.2163 205.3390 0003275  34.9208 325.1998 15.08841760 46854,6917.875,95.437,542.006,537.474,0.0
52127.0,STARLINK-3715,PAYLOAD,2023-01-12 18:30:42,15.08831077,0.0003101,53.2167,200.2833,36.7279,323.3925,8.2968e-05,1.032e-05,0.0,0 STARLINK-3715,1 52127U 22029AR  23012.77132503  .00001032  00000-0  82968-4 0  9991,2 52127  53.2167 200.2833 0003101  36.7279 323.3925 15.08831077 47020,6917.908,95.438,541.918,537.627,0.0
52127.0,STARLINK-3715,PAYLOAD,2023-01-12 21:41:28,15.08834285,0.0003109,53.2166,199.6883,37.5293,322.5916,7.310199999999999e-05,8.75e-06,0.0,0 STARLINK-3715,1 52127U 22029AR  23012.90380432  .00000875  00000-0  73102-4 0  9996,2 52127  53.2166 199.6883 0003109  37.5293 322.5916 15.08834285 47045,6917.898,95.438,541.914,537.612,0.0
52127.0,STARLINK-3715,PAYLOAD,2023-01-13 05:38:24,15.08841142,0.0003117,53.2167,198.2017,37.8817,322.2394,6.496199999999999e-05,7.45e-06,0.0,0 STARLINK-3715,1 52127U 22029AR  23013.23500127  .00000745  00000-0  64962-4 0  9998,2 52127  53.2167 198.2017 0003117  37.8817 322.2394 15.08841142 47096,6917.877,95.437,541.898,537.586,0.0
52127.0,STARLINK-3715,PAYLOAD,2023-01-13 21:32:15,15.08845949,0.0003058,53.217,195.2269,40.7969,319.3252,0.00014324,1.992e-05,0.0,0 STARLINK-3715,1 52127U 22029AR  23013.89739615  .00001992  00000-0  14324-3 0  9997,2 52127  53.2170 195.2269 0003058  40.7969 319.3252 15.08845949 47191,6917.861999999999,95.437,541.8430000000001,537.612,0.0
